[{"OBJECT_NAME":"STARLINK-1651","OBJECT_ID":"2020-062AT","EPOCH":"2023-11-16T00:12:43.896960","MEAN_MOTION":15.06398925,"ECCENTRICITY":0.0001181,"INCLINATION":53.0532,"RA_OF_ASC_NODE":163.5395,"ARG_OF_PERICENTER":83.5117,"MEAN_ANOMALY":276.6006,"EPHEMERIS_TYPE":0,"CLASSIFICATION_TYPE":"U","NORAD_CAT_ID":46366,"ELEMENT_SET_NO":999,"REV_AT_EPOCH":17762,"BSTAR":1.6394e-5,"MEAN_MOTION_DOT":-3.7e-7,"MEAN_MOTION_DDOT":0},{"OBJECT_NAME":"STARLINK-1658","OBJECT_ID":"2020-062AV","EPOCH":"2023-11-16T16:06:07.059456","MEAN_MOTION":15.06393812,"ECCENTRICITY":0.0001745,"INCLINATION":53.0572,"RA_OF_ASC_NODE":185.5602,"ARG_OF_PERICENTER":90.8984,"MEAN_ANOMALY":269.2205,"EPHEMERIS_TYPE":0,"CLASSIFICATION_TYPE":"U","NORAD_CAT_ID":46368,"ELEMENT_SET_NO":999,"REV_AT_EPOCH":17738,"BSTAR":0.00010257,"MEAN_MOTION_DOT":1.246e-5,"MEAN_MOTION_DDOT":0},{"OBJECT_NAME":"STARLINK-1670","OBJECT_ID":"2020-062AX","EPOCH":"2023-11-16T21:36:34.378560","MEAN_MOTION":15.06398558,"ECCENTRICITY":0.0002448,"INCLINATION":53.053,"RA_OF_ASC_NODE":184.5371,"ARG_OF_PERICENTER":87.9841,"MEAN_ANOMALY":272.1429,"EPHEMERIS_TYPE":0,"CLASSIFICATION_TYPE":"U","NORAD_CAT_ID":46370,"ELEMENT_SET_NO":999,"REV_AT_EPOCH":17759,"BSTAR":0.00063293,"MEAN_MOTION_DOT":9.158e-5,"MEAN_MOTION_DDOT":0},{"OBJECT_NAME":"STARLINK-1688","OBJECT_ID":"2020-062AY","EPOCH":"2023-11-17T00:37:01.540992","MEAN_MOTION":15.06404388,"ECCENTRICITY":0.000136,"INCLINATION":53.0552,"RA_OF_ASC_NODE":183.9742,"ARG_OF_PERICENTER":111.8801,"MEAN_ANOMALY":248.2332,"EPHEMERIS_TYPE":0,"CLASSIFICATION_TYPE":"U","NORAD_CAT_ID":46371,"ELEMENT_SET_NO":999,"REV_AT_EPOCH":17761,"BSTAR":0.00081808,"MEAN_MOTION_DOT":0.00011926,"MEAN_MOTION_DDOT":0},{"OBJECT_NAME":"STARLINK-1689","OBJECT_ID":"2020-062AZ","EPOCH":"2023-11-16T16:52:35.726592","MEAN_MOTION":15.06397343,"ECCENTRICITY":0.0001442,"INCLINATION":53.0536,"RA_OF_ASC_NODE":205.4244,"ARG_OF_PERICENTER":96.2887,"MEAN_ANOMALY":263.8266,"EPHEMERIS_TYPE":0,"CLASSIFICATION_TYPE":"U","NORAD_CAT_ID":46372,"ELEMENT_SET_NO":999,"REV_AT_EPOCH":17710,"BSTAR":0.00010611,"MEAN_MOTION_DOT":1.299e-5,"MEAN_MOTION_DDOT":0},{"OBJECT_NAME":"STARLINK-1711","OBJECT_ID":"2020-062BB","EPOCH":"2023-11-16T12:25:51.911616","MEAN_MOTION":15.06401796,"ECCENTRICITY":0.0001662,"INCLINATION":53.0504,"RA_OF_ASC_NODE":136.2514,"ARG_OF_PERICENTER":96.1693,"MEAN_ANOMALY":263.9486,"EPHEMERIS_TYPE":0,"CLASSIFICATION_TYPE":"U","NORAD_CAT_ID":46374,"ELEMENT_SET_NO":999,"REV_AT_EPOCH":17805,"BSTAR":7.7018e-6,"MEAN_MOTION_DOT":-1.67e-6,"MEAN_MOTION_DDOT":0},{"OBJECT_NAME":"STARLINK-1724","OBJECT_ID":"2020-062BC","EPOCH":"2023-11-16T20:44:08.171808","MEAN_MOTION":15.06402582,"ECCENTRICITY":0.0001244,"INCLINATION":53.0519,"RA_OF_ASC_NODE":159.6977,"ARG_OF_PERICENTER":98.8009,"MEAN_ANOMALY":261.3121,"EPHEMERIS_TYPE":0,"CLASSIFICATION_TYPE":"U","NORAD_CAT_ID":46375,"ELEMENT_SET_NO":999,"REV_AT_EPOCH":17775,"BSTAR":-0.00020826,"MEAN_MOTION_DOT":-3.382e-5,"MEAN_MOTION_DDOT":0},{"OBJECT_NAME":"STARLINK-1742","OBJECT_ID":"2020-062BD","EPOCH":"2023-11-16T22:40:55.610112","MEAN_MOTION":15.06377026,"ECCENTRICITY":8.53e-5,"INCLINATION":53.0572,"RA_OF_ASC_NODE":159.3303,"ARG_OF_PERICENTER":115.6326,"MEAN_ANOMALY":244.4752,"EPHEMERIS_TYPE":0,"CLASSIFICATION_TYPE":"U","NORAD_CAT_ID":46376,"ELEMENT_SET_NO":999,"REV_AT_EPOCH":17794,"BSTAR":4.8095e-5,"MEAN_MOTION_DOT":4.35e-6,"MEAN_MOTION_DDOT":0},{"OBJECT_NAME":"STARLINK-1758","OBJECT_ID":"2020-062BH","EPOCH":"2023-11-17T01:03:33.904224","MEAN_MOTION":15.06399274,"ECCENTRICITY":0.000161,"INCLINATION":53.0532,"RA_OF_ASC_NODE":183.8915,"ARG_OF_PERICENTER":84.5965,"MEAN_ANOMALY":275.5208,"EPHEMERIS_TYPE":0,"CLASSIFICATION_TYPE":"U","NORAD_CAT_ID":46380,"ELEMENT_SET_NO":999,"REV_AT_EPOCH":17761,"BSTAR":0.00014487,"MEAN_MOTION_DOT":1.877e-5,"MEAN_MOTION_DDOT":0},{"OBJECT_NAME":"STARLINK-1769","OBJECT_ID":"2020-062BK","EPOCH":"2023-11-16T19:51:02.117376","MEAN_MOTION":15.06415079,"ECCENTRICITY":4.75e-5,"INCLINATION":53.0571,"RA_OF_ASC_NODE":159.8635,"ARG_OF_PERICENTER":116.8832,"MEAN_ANOMALY":243.2205,"EPHEMERIS_TYPE":0,"CLASSIFICATION_TYPE":"U","NORAD_CAT_ID":46382,"ELEMENT_SET_NO":999,"REV_AT_EPOCH":17775,"BSTAR":0.0001932,"MEAN_MOTION_DOT":2.599e-5,"MEAN_MOTION_DDOT":0},{"OBJECT_NAME":"STARLINK-1770","OBJECT_ID":"2020-062BL","EPOCH":"2023-11-16T22:42:54.528480","MEAN_MOTION":15.06393214,"ECCENTRICITY":0.0001061,"INCLINATION":53.0558,"RA_OF_ASC_NODE":204.3296,"ARG_OF_PERICENTER":89.3238,"MEAN_ANOMALY":270.7873,"EPHEMERIS_TYPE":0,"CLASSIFICATION_TYPE":"U","NORAD_CAT_ID":46383,"ELEMENT_SET_NO":999,"REV_AT_EPOCH":17731,"BSTAR":0.00013588,"MEAN_MOTION_DOT":1.743e-5,"MEAN_MOTION_DDOT":0},{"OBJECT_NAME":"STARLINK-1771","OBJECT_ID":"2020-062BM","EPOCH":"2023-11-16T22:48:13.146624","MEAN_MOTION":15.06394893,"ECCENTRICITY":0.0001247,"INCLINATION":53.0568,"RA_OF_ASC_NODE":204.313,"ARG_OF_PERICENTER":85.4411,"MEAN_ANOMALY":274.672,"EPHEMERIS_TYPE":0,"CLASSIFICATION_TYPE":"U","NORAD_CAT_ID":46384,"ELEMENT_SET_NO":999,"REV_AT_EPOCH":17713,"BSTAR":0.00017054,"MEAN_MOTION_DOT":2.259e-5,"MEAN_MOTION_DDOT":0},{"OBJECT_NAME":"GAOFEN-11 02","OBJECT_ID":"2020-064A","EPOCH":"2023-11-17T04:02:58.033536","MEAN_MOTION":15.23392267,"ECCENTRICITY":0.000714,"INCLINATION":97.4263,"RA_OF_ASC_NODE":76.0134,"ARG_OF_PERICENTER":135.4259,"MEAN_ANOMALY":224.7554,"EPHEMERIS_TYPE":0,"CLASSIFICATION_TYPE":"U","NORAD_CAT_ID":46396,"ELEMENT_SET_NO":999,"REV_AT_EPOCH":17795,"BSTAR":0.00033648,"MEAN_MOTION_DOT":7.941e-5,"MEAN_MOTION_DDOT":0},{"OBJECT_NAME":"JILIN-1 GAOFEN 3B","OBJECT_ID":"2020-065A","EPOCH":"2023-11-17T03:51:19.460160","MEAN_MOTION":15.19867505,"ECCENTRICITY":0.0010573,"INCLINATION":97.3738,"RA_OF_ASC_NODE":5.4498,"ARG_OF_PERICENTER":242.1961,"MEAN_ANOMALY":117.8203,"EPHEMERIS_TYPE":0,"CLASSIFICATION_TYPE":"U","NORAD_CAT_ID":46454,"ELEMENT_SET_NO":999,"REV_AT_EPOCH":17501,"BSTAR":0.00038907,"MEAN_MOTION_DOT":8.295e-5,"MEAN_MOTION_DDOT":0},{"OBJECT_NAME":"JILIN-1 GAOFEN 3C","OBJECT_ID":"2020-065B","EPOCH":"2023-11-17T02:57:38.871648","MEAN_MOTION":15.20045615,"ECCENTRICITY":0.0009471,"INCLINATION":97.3692,"RA_OF_ASC_NODE":4.8066,"ARG_OF_PERICENTER":258.3865,"MEAN_ANOMALY":101.6308,"EPHEMERIS_TYPE":0,"CLASSIFICATION_TYPE":"U","NORAD_CAT_ID":46455,"ELEMENT_SET_NO":999,"REV_AT_EPOCH":17501,"BSTAR":0.00038923,"MEAN_MOTION_DOT":8.339e-5,"MEAN_MOTION_DDOT":0},{"OBJECT_NAME":"JILIN-1 GAOFEN 3D","OBJECT_ID":"2020-065C","EPOCH":"2023-11-17T03:57:26.747424","MEAN_MOTION":15.20276039,"ECCENTRICITY":0.0008806,"INCLINATION":97.3783,"RA_OF_ASC_NODE":6.3302,"ARG_OF_PERICENTER":259.1505,"MEAN_ANOMALY":100.874,"EPHEMERIS_TYPE":0,"CLASSIFICATION_TYPE":"U","NORAD_CAT_ID":46456,"ELEMENT_SET_NO":999,"REV_AT_EPOCH":17502,"BSTAR":0.00040085,"MEAN_MOTION_DOT":8.647e-5,"MEAN_MOTION_DDOT":0},{"OBJECT_NAME":"JILIN-1 GAOFEN 3E","OBJECT_ID":"2020-065D","EPOCH":"2023-11-17T03:53:38.496768","MEAN_MOTION":15.19777971,"ECCENTRICITY":0.000912,"INCLINATION":97.3746,"RA_OF_ASC_NODE":5.56,"ARG_OF_PERICENTER":264.4494,"MEAN_ANOMALY":95.5701,"EPHEMERIS_TYPE":0,"CLASSIFICATION_TYPE":"U","NORAD_CAT_ID":46457,"ELEMENT_SET_NO":999,"REV_AT_EPOCH":17501,"BSTAR":0.00037977,"MEAN_MOTION_DOT":8.071e-5,"MEAN_MOTION_DDOT":0},{"OBJECT_NAME":"JILIN-1 GAOFEN 3F","OBJECT_ID":"2020-065E","EPOCH":"2023-11-17T03:19:43.546944","MEAN_MOTION":15.19798427,"ECCENTRICITY":0.0009569,"INCLINATION":97.3679,"RA_OF_ASC_NODE":4.5414,"ARG_OF_PERICENTER":251.9677,"MEAN_ANOMALY":108.0516,"EPHEMERIS_TYPE":0,"CLASSIFICATION_TYPE":"U","NORAD_CAT_ID":46458,"ELEMENT_SET_NO":999,"REV_AT_EPOCH":17501,"BSTAR":0.00041048,"MEAN_MOTION_DOT":8.736e-5,"MEAN_MOTION_DDOT":0},{"OBJECT_NAME":"JILIN-1 GAOFEN 3G","OBJECT_ID":"2020-065F","EPOCH":"2023-11-17T03:03:09.083808","MEAN_MOTION":15.19851852,"ECCENTRICITY":0.001038,"INCLINATION":97.3799,"RA_OF_ASC_NODE":6.4466,"ARG_OF_PERICENTER":258.3716,"MEAN_ANOMALY":101.6354,"EPHEMERIS_TYPE":0,"CLASSIFICATION_TYPE":"U","NORAD_CAT_ID":46459,"ELEMENT_SET_NO":999,"REV_AT_EPOCH":17501,"BSTAR":0.00039149,"MEAN_MOTION_DOT":8.343e-5,"MEAN_MOTION_DDOT":0},{"OBJECT_NAME":"JILIN-1 GAOFEN 3H","OBJECT_ID":"2020-065G","EPOCH":"2023-11-17T03:24:34.611264","MEAN_MOTION":15.19690099,"ECCENTRICITY":0.00097,"INCLINATION":97.3691,"RA_OF_ASC_NODE":4.7378,"ARG_OF_PERICENTER":254.6169,"MEAN_ANOMALY":105.3995,"EPHEMERIS_TYPE":0,"CLASSIFICATION_TYPE":"U","NORAD_CAT_ID":46460,"ELEMENT_SET_NO":999,"REV_AT_EPOCH":17501,"BSTAR":0.00040293,"MEAN_MOTION_DOT":8.547e-5,"MEAN_MOTION_DDOT":0},{"OBJECT_NAME":"JILIN-1 GAOFEN 3I","OBJECT_ID":"2020-065H","EPOCH":"2023-11-17T02:51:48.738240","MEAN_MOTION":15.19821201,"ECCENTRICITY":0.0010119,"INCLINATION":97.3783,"RA_OF_ASC_NODE":6.1891,"ARG_OF_PERICENTER":246.3453,"MEAN_ANOMALY":113.672,"EPHEMERIS_TYPE":0,"CLASSIFICATION_TYPE":"U","NORAD_CAT_ID":46461,"ELEMENT_SET_NO":999,"REV_AT_EPOCH":17501,"BSTAR":0.00040613,"MEAN_MOTION_DOT":8.649e-5,"MEAN_MOTION_DDOT":0},{"OBJECT_NAME":"JILIN-1 GAOFEN 3J","OBJECT_ID":"2020-065J","EPOCH":"2023-11-17T04:07:29.333856","MEAN_MOTION":15.19865392,"ECCENTRICITY":0.0009311,"INCLINATION":97.3736,"RA_OF_ASC_NODE":5.546,"ARG_OF_PERICENTER":252.1704,"MEAN_ANOMALY":107.8515,"EPHEMERIS_TYPE":0,"CLASSIFICATION_TYPE":"U","NORAD_CAT_ID":46462,"ELEMENT_SET_NO":999,"REV_AT_EPOCH":17502,"BSTAR":0.00036877,"MEAN_MOTION_DOT":7.855e-5,"MEAN_MOTION_DDOT":0},{"OBJECT_NAME":"HAIYANG-2C","OBJECT_ID":"2020-066A","EPOCH":"2023-11-17T03:40:03.608256","MEAN_MOTION":13.83376788,"ECCENTRICITY":0.0014121,"INCLINATION":65.9982,"RA_OF_ASC_NODE":43.2304,"ARG_OF_PERICENTER":277.2837,"MEAN_ANOMALY":82.6626,"EPHEMERIS_TYPE":0,"CLASSIFICATION_TYPE":"U","NORAD_CAT_ID":46469,"ELEMENT_SET_NO":999,"REV_AT_EPOCH":15933,"BSTAR":8.9516e-5,"MEAN_MOTION_DOT":1.7e-7,"MEAN_MOTION_DDOT":0}]
